NORAD_CAT_ID,OBJECT_NAME,OBJECT_TYPE,EPOCH,MEAN_MOTION,ECCENTRICITY,INCLINATION,RA_OF_ASC_NODE,ARG_OF_PERICENTER,MEAN_ANOMALY,BSTAR,MEAN_MOTION_DOT,MEAN_MOTION_DDOT,TLE_LINE0,TLE_LINE1,TLE_LINE2,SEMIMAJOR_AXIS,PERIOD,APOGEE,PERIGEE,DECAYED
53795.0,STARLINK-4742,PAYLOAD,2024-07-23 08:05:53,15.08850604,0.0001252,53.2174,61.9567,81.5601,278.5533,2.4519e-05,1.02e-06,0.0,0 STARLINK-4742,1 53795U 22111Y   24205.33742177  .00000102  00000-0  24519-4 0  9991,2 53795  53.2174  61.9567 0001252  81.5601 278.5533 15.08850604103967,6917.848,95.437,540.579,538.847,0.0
53795.0,STARLINK-4742,PAYLOAD,2024-07-24 14:18:13,15.08838402,0.0001424,53.2173,56.3084,74.8116,285.3033,1.6916e-05,-1.9e-07,0.0,0 STARLINK-4742,1 53795U 22111Y   24206.59599148 -.00000019  00000-0  16916-4 0  9998,2 53795  53.2173  56.3084 0001424  74.8116 285.3033 15.08838402104150,6917.885,95.438,540.735,538.765,0.0
53795.0,STARLINK-4742,PAYLOAD,2024-07-24 23:50:31,15.08845839,0.000135,53.217,54.5235,81.0422,279.0723,9.449e-05,1.216e-05,0.0,0 STARLINK-4742,1 53795U 22111Y   24206.99342461  .00001216  00000-0  94490-4 0  9998,2 53795  53.2170  54.5235 0001350  81.0422 279.0723 15.08845839103419,6917.863,95.437,540.661,538.794,0.0
53795.0,STARLINK-4742,PAYLOAD,2024-07-26 13:59:47,15.08841323,0.000126,53.2099,47.3812,77.4315,282.6818,7.8932e-05,9.69e-06,0.0,0 STARLINK-4742,1 53795U 22111Y   24208.58318859  .00000969  00000-0  78932-4 0  9996,2 53795  53.2099  47.3812 0001260  77.4315 282.6818 15.08841323103655,6917.876,95.437,540.613,538.87,0.0
53795.0,STARLINK-4742,PAYLOAD,2024-07-26 20:21:19,15.08850997,0.000204,53.2144,46.1953,92.2973,267.8253,0.00015635,2.202e-05,0.0,0 STARLINK-4742,1 53795U 22111Y   24208.84814016  .00002202  00000-0  15635-3 0  9993,2 53795  53.2144  46.1953 0002040  92.2973 267.8253 15.08850997103690,6917.847,95.437,541.123,538.301,0.0
53795.0,STARLINK-4742,PAYLOAD,2024-07-26 21:56:42,15.08851888,0.0001376,53.2115,45.8975,86.3494,273.7655,0.00014176,1.97e-05,0.0,0 STARLINK-4742,1 53795U 22111Y   24208.91437885  .00001970  00000-0  14176-3 0  9996,2 53795  53.2115  45.8975 0001376  86.3494 273.7655 15.08851888104504,6917.844,95.437,540.661,538.757,0.0
53795.0,STARLINK-4742,PAYLOAD,2024-07-27 21:47:31,15.08830283,0.0001593,53.2171,41.4352,73.9068,286.21,-4.2409e-05,-9.63e-06,0.0,0 STARLINK-4742,1 53795U 22111Y   24209.90800404 -.00000963  00000-0 -42409-4 0  9991,2 53795  53.2171  41.4352 0001593  73.9068 286.2100 15.08830283103854,6917.91,95.438,540.877,538.673,0.0
53795.0,STARLINK-4742,PAYLOAD,2024-07-28 21:38:19,15.0883705,0.0001589,53.2201,36.9744,80.2159,279.9012,-0.00023059,-3.956e-05,0.0,0 STARLINK-4742,1 53795U 22111Y   24210.90161349 -.00003956  00000-0 -23059-3 0  9995,2 53795  53.2201  36.9744 0001589  80.2159 279.9012 15.08837050104805,6917.889,95.438,540.854,538.655,0.0
53795.0,STARLINK-4742,PAYLOAD,2024-07-29 11:56:45,15.08718649,0.0001531,53.2168,34.2983,120.3412,239.7732,0.0016302,0.00025666,0.0,0 STARLINK-4742,1 53795U 22111Y   24211.49775349  .00025666  00000-0  16302-2 0  9993,2 53795  53.2168  34.2983 0001531 120.3412 239.7732 15.08718649104094,6918.251,95.445,541.176,539.057,0.0
53795.0,STARLINK-4742,PAYLOAD,2024-07-29 19:53:41,15.08845882,0.0001535,53.2181,32.8144,78.3631,281.7533,0.00034704,5.24e-05,0.0,0 STARLINK-4742,1 53795U 22111Y   24211.82895325  .00005240  00000-0  34704-3 0  9990,2 53795  53.2181  32.8144 0001535  78.3631 281.7533 15.08845882104143,6917.862,95.437,540.789,538.666,0.0
53795.0,STARLINK-4742,PAYLOAD,2024-07-29 21:29:04,15.08852738,0.0001317,53.2179,32.5142,97.1504,262.9638,0.00035707,5.401e-05,0.0,0 STARLINK-4742,1 53795U 22111Y   24211.89518735  .00005401  00000-0  35707-3 0  9997,2 53795  53.2179  32.5142 0001317  97.1504 262.9638 15.08852738104955,6917.841,95.437,540.618,538.795,0.0
53795.0,STARLINK-4742,PAYLOAD,2024-07-30 05:26:00,15.08840943,0.0001265,53.2185,31.0264,95.3318,264.7819,0.00023014,3.377e-05,0.0,0 STARLINK-4742,1 53795U 22111Y   24212.22639836  .00003377  00000-0  23014-3 0  9999,2 53795  53.2185  31.0264 0001265  95.3318 264.7819 15.08840943104200,6917.878,95.437,540.618,538.867,0.0
53795.0,STARLINK-4742,PAYLOAD,2024-07-30 11:47:33,15.08851686,0.0001632,53.2173,29.8393,88.9288,271.1891,9.6726e-05,1.252e-05,0.0,0 STARLINK-4742,1 53795U 22111Y   24212.49135944  .00001252  00000-0  96726-4 0  9990,2 53795  53.2173  29.8393 0001632  88.9288 271.1891 15.08851686105048,6917.845,95.437,540.839,538.581,0.0
53795.0,STARLINK-4742,PAYLOAD,2024-07-30 18:09:05,15.08855148,0.0001478,53.2169,28.6499,90.9245,269.1916,0.00011743,1.582e-05,0.0,0 STARLINK-4742,1 53795U 22111Y   24212.75631413  .00001582  00000-0  11743-3 0  9992,2 53795  53.2169  28.6499 0001478  90.9245 269.1916 15.08855148105087,6917.834,95.437,540.722,538.677,0.0
53795.0,STARLINK-4742,PAYLOAD,2024-07-31 14:49:06,15.08848533,0.0001259,53.2154,24.7834,85.5768,274.5368,-0.00011172,-2.066e-05,0.0,0 STARLINK-4742,1 53795U 22111Y   24213.61743979 -.00002066  00000-0 -11172-3 0  9995,2 53795  53.2154  24.7834 0001259  85.5768 274.5368 15.08848533105214,6917.854,95.437,540.59,538.848,0.0
53795.0,STARLINK-4742,PAYLOAD,2024-07-31 21:10:39,15.08850975,0.000147,53.2172,23.593,92.043,268.073,-0.00010161,-1.905e-05,0.0,0 STARLINK-4742,1 53795U 22111Y   24213.88239631 -.00001905  00000-0 -10161-3 0  9997,2 53795  53.2172  23.5930 0001470  92.0430 268.0730 15.08850975105250,6917.847,95.437,540.729,538.695,0.0
53795.0,STARLINK-4742,PAYLOAD,2024-08-01 21:01:25,15.08852614,0.0001696,53.2196,19.13,110.551,249.5664,9.6502e-05,1.249e-05,0.0,0 STARLINK-4742,1 53795U 22111Y   24214.87598414  .00001249  00000-0  96502-4 0  9997,2 53795  53.2196  19.1300 0001696 110.5510 249.5664 15.08852614105402,6917.842,95.437,540.88,538.534,0.0
53795.0,STARLINK-4742,PAYLOAD,2024-08-02 11:19:54,15.0882713,0.000106,53.2192,16.4557,92.0826,268.0288,1.3085e-05,-8e-07,0.0,0 STARLINK-4742,1 53795U 22111Y   24215.47216389 -.00000080  00000-0  13085-4 0  9990,2 53795  53.2192  16.4557 0001060  92.0826 268.0288 15.08827130104694,6917.92,95.438,540.518,539.051,0.0
53795.0,STARLINK-4742,PAYLOAD,2024-08-02 14:30:40,15.08835444,0.0002082,53.2178,15.855,124.1984,235.9206,1.0769e-05,-1.17e-06,0.0,0 STARLINK-4742,1 53795U 22111Y   24215.60463485 -.00000117  00000-0  10769-4 0  9993,2 53795  53.2178  15.8550 0002082 124.1984 235.9206 15.08835444105513,6917.894,95.438,541.2,538.319,0.0
53795.0,STARLINK-4742,PAYLOAD,2024-08-02 17:41:27,15.0883373,0.0001349,53.2183,15.2692,88.5728,271.5418,6.6727e-05,7.74e-06,0.0,0 STARLINK-4742,1 53795U 22111Y   24215.73712204  .00000774  00000-0  66727-4 0  9996,2 53795  53.2183  15.2692 0001349  88.5728 271.5418 15.08833730105533,6917.9,95.438,540.698,538.831,0.0
53795.0,STARLINK-4742,PAYLOAD,2024-08-03 03:13:46,15.08838192,0.000127,53.218,13.4845,83.7811,276.3326,8.7501e-06,-1.49e-06,0.0,0 STARLINK-4742,1 53795U 22111Y   24216.13456038 -.00000149  00000-0  87501-5 0  9992,2 53795  53.2180  13.4845 0001270  83.7811 276.3326 15.08838192104798,6917.886,95.438,540.629,538.872,0.0
53795.0,STARLINK-4742,PAYLOAD,2024-08-03 14:21:27,15.08857904,0.0001121,53.2178,11.404,98.0353,262.0766,-0.00014055,-2.525e-05,0.0,0 STARLINK-4742,1 53795U 22111Y   24216.59823419 -.00002525  00000-0 -14055-3 0  9996,2 53795  53.2178  11.4040 0001121  98.0353 262.0766 15.08857904105664,6917.826,95.436,540.466,538.915,0.0
53795.0,STARLINK-4742,PAYLOAD,2024-08-03 17:32:13,15.08851777,0.0001307,53.2171,10.8099,81.0991,279.0149,-1.2457e-05,-4.86e-06,0.0,0 STARLINK-4742,1 53795U 22111Y   24216.73071021 -.00000486  00000-0 -12457-4 0  9995,2 53795  53.2171  10.8099 0001307  81.0991 279.0149 15.08851777104888,6917.844,95.437,540.614,538.805,0.0
53795.0,STARLINK-4742,PAYLOAD,2024-08-04 14:12:14,15.08837146,0.000153,53.2191,6.9459,100.9003,259.2162,0.00010203,1.336e-05,0.0,0 STARLINK-4742,1 53795U 22111Y   24217.59183931  .00001336  00000-0  10203-3 0  9993,2 53795  53.2191   6.9459 0001530 100.9003 259.2162 15.08837146105812,6917.889,95.438,540.813,538.696,0.0
53795.0,STARLINK-4742,PAYLOAD,2024-08-04 18:58:23,15.08855017,0.0001293,53.2172,6.0512,91.2816,268.8324,0.00034189,5.16e-05,0.0,0 STARLINK-4742,1 53795U 22111Y   24217.79054996  .00005160  00000-0  34189-3 0  9991,2 53795  53.2172   6.0512 0001293  91.2816 268.8324 15.08855017105040,6917.834,95.437,540.594,538.805,0.0
53795.0,STARLINK-4742,PAYLOAD,2024-08-05 02:55:19,15.08847572,0.0001521,53.2181,4.5635,86.0457,274.0709,0.00018175,2.606e-05,0.0,0 STARLINK-4742,1 53795U 22111Y   24218.12175327  .00002606  00000-0  18175-3 0  9990,2 53795  53.2181   4.5635 0001521  86.0457 274.0709 15.08847572105094,6917.857,95.437,540.774,538.67,0.0
53795.0,STARLINK-4742,PAYLOAD,2024-08-05 17:13:46,15.08860193,0.0001417,53.219,1.8902,86.1409,273.9745,0.00025619,3.794e-05,0.0,0 STARLINK-4742,1 53795U 22111Y   24218.71790426  .00003794  00000-0  25619-3 0  9998,2 53795  53.2190   1.8902 0001417  86.1409 273.9745 15.08860193105185,6917.819,95.436,540.664,538.703,0.0
53795.0,STARLINK-4742,PAYLOAD,2024-08-06 02:46:05,15.08849201,0.0001181,53.219,0.1018,89.6295,270.4832,-0.00023946,-4.098e-05,0.0,0 STARLINK-4742,1 53795U 22111Y   24219.11534632 -.00004098  00000-0 -23946-3 0  9999,2 53795  53.2190   0.1018 0001181  89.6295 270.4832 15.08849201105247,6917.852,95.437,540.534,538.9,0.0
53795.0,STARLINK-4742,PAYLOAD,2024-08-06 15:29:12,15.08821167,0.0001052,53.2178,357.7234,94.9026,265.2086,-0.00018952,-3.301e-05,0.0,0 STARLINK-4742,1 53795U 22111Y   24219.64528503 -.00003301  00000-0 -18952-3 0  9994,2 53795  53.2178 357.7234 0001052  94.9026 265.2086 15.08821167106124,6917.938,95.439,540.531,539.075,0.0
53795.0,STARLINK-4742,PAYLOAD,2024-08-06 18:39:58,15.08836229,0.0001325,53.2178,357.1256,102.2537,257.8603,-0.00012285,-2.242e-05,0.0,0 STARLINK-4742,1 53795U 22111Y   24219.77775826 -.00002242  00000-0 -12285-3 0  9996,2 53795  53.2178 357.1256 0001325 102.2537 257.8603 15.08836229105345,6917.892,95.438,540.674,538.84,0.0
